{
  "type": "FeatureCollection",
  "features": [
    {
      "type": "Feature",
      "properties": {
        "norad_id": 66909,
        "name": "SILVERSAT",
        "group": "stations",
        "lat": -50.77848465730408,
        "lon": 40.5539489042796,
        "alt_km": 414.3829733723078,
        "timestamp": "2025-12-12T07:43:19.278809+00:00",
        "meta_object_name": "SILVERSAT",
        "meta_object_id": "1998-067XV",
        "meta_epoch": "2025-12-11T19:46:46.158240",
        "meta_mean_motion": 15.51450033,
        "meta_eccentricity": 0.00045562,
        "meta_inclination": 51.63,
        "meta_ra_of_asc_node": 146.926,
        "meta_arg_of_pericenter": 222.0234,
        "meta_mean_anomaly": 138.0406,
        "meta_ephemeris_type": 0,
        "meta_classification_type": "U",
        "meta_norad_cat_id": 66909,
        "meta_element_set_no": 999,
        "meta_rev_at_epoch": 147,
        "meta_bstar": 0.0013718352,
        "meta_mean_motion_dot": 0.00082864,
        "meta_mean_motion_ddot": 0,
        "tle_line1": "1 66909U 98067XV  25345.82414535  .00082864  00000+0  13718-2 0  9990",
        "tle_line2": "2 66909  51.6300 146.9260 0004556 222.0234 138.0406 15.51450033  1471"
      },
      "geometry": {
        "type": "Point",
        "coordinates": [
          40.5539489042796,
          -50.77848465730408
        ]
      }
    },
    {
      "type": "Feature",
      "properties": {
        "norad_id": 66910,
        "name": "1998-067XW",
        "group": "stations",
        "lat": -51.60620210931464,
        "lon": 53.47607810762502,
        "alt_km": 414.90051531386416,
        "timestamp": "2025-12-12T07:43:19.278819+00:00",
        "meta_object_name": "1998-067XW",
        "meta_object_id": "1998-067XW",
        "meta_epoch": "2025-12-11T19:44:44.282400",
        "meta_mean_motion": 15.51588385,
        "meta_eccentricity": 0.0005376,
        "meta_inclination": 51.6301,
        "meta_ra_of_asc_node": 146.917,
        "meta_arg_of_pericenter": 203.4285,
        "meta_mean_anomaly": 156.646,
        "meta_ephemeris_type": 0,
        "meta_classification_type": "U",
        "meta_norad_cat_id": 66910,
        "meta_element_set_no": 999,
        "meta_rev_at_epoch": 147,
        "meta_bstar": 0.0011426696,
        "meta_mean_motion_dot": 0.00069176,
        "meta_mean_motion_ddot": 0,
        "tle_line1": "1 66910U 98067XW  25345.82273475  .00069176  00000+0  11427-2 0  9994",
        "tle_line2": "2 66910  51.6301 146.9170 0005376 203.4285 156.6460 15.51588385  1472"
      },
      "geometry": {
        "type": "Point",
        "coordinates": [
          53.47607810762502,
          -51.60620210931464
        ]
      }
    },
    {
      "type": "Feature",
      "properties": {
        "norad_id": 66911,
        "name": "1998-067XX",
        "group": "stations",
        "lat": -51.50914131008967,
        "lon": 59.29105611739803,
        "alt_km": 414.3908861330028,
        "timestamp": "2025-12-12T07:43:19.278829+00:00",
        "meta_object_name": "1998-067XX",
        "meta_object_id": "1998-067XX",
        "meta_epoch": "2025-12-11T19:43:54.579072",
        "meta_mean_motion": 15.51811503,
        "meta_eccentricity": 0.00051158,
        "meta_inclination": 51.6297,
        "meta_ra_of_asc_node": 146.9125,
        "meta_arg_of_pericenter": 205.0916,
        "meta_mean_anomaly": 154.9826,
        "meta_ephemeris_type": 0,
        "meta_classification_type": "U",
        "meta_norad_cat_id": 66911,
        "meta_element_set_no": 999,
        "meta_rev_at_epoch": 146,
        "meta_bstar": 0.0013559752,
        "meta_mean_motion_dot": 0.0008298,
        "meta_mean_motion_ddot": 0,
        "tle_line1": "1 66911U 98067XX  25345.82215948  .00082980  00000+0  13560-2 0  9994",
        "tle_line2": "2 66911  51.6297 146.9125 0005115 205.0916 154.9826 15.51811503  1464"
      },
      "geometry": {
        "type": "Point",
        "coordinates": [
          59.29105611739803,
          -51.50914131008967
        ]
      }
    },
    {
      "type": "Feature",
      "properties": {
        "norad_id": 66912,
        "name": "1998-067XY",
        "group": "stations",
        "lat": -48.468315528440236,
        "lon": 27.92004786668496,
        "alt_km": 415.48514946225714,
        "timestamp": "2025-12-12T07:43:19.278840+00:00",
        "meta_object_name": "1998-067XY",
        "meta_object_id": "1998-067XY",
        "meta_epoch": "2025-12-11T19:48:45.131904",
        "meta_mean_motion": 15.51001955,
        "meta_eccentricity": 0.00047052,
        "meta_inclination": 51.6304,
        "meta_ra_of_asc_node": 146.936,
        "meta_arg_of_pericenter": 217.5082,
        "meta_mean_anomaly": 142.5579,
        "meta_ephemeris_type": 0,
        "meta_classification_type": "U",
        "meta_norad_cat_id": 66912,
        "meta_element_set_no": 999,
        "meta_rev_at_epoch": 146,
        "meta_bstar": 0.00099420433,
        "meta_mean_motion_dot": 0.0005879,
        "meta_mean_motion_ddot": 0,
        "tle_line1": "1 66912U 98067XY  25345.82552236  .00058790  00000+0  99420-3 0  9991",
        "tle_line2": "2 66912  51.6304 146.9360 0004705 217.5082 142.5579 15.51001955  1461"
      },
      "geometry": {
        "type": "Point",
        "coordinates": [
          27.92004786668496,
          -48.468315528440236
        ]
      }
    }
  ]
}